{
  "norad_id": 62829,
  "name": "STARLINK-11548 [DTC]",
  "history": [
    {
      "epoch": "2026-03-28T15:14:41.738784Z",
      "apogee_km": 357.800200029129,
      "perigee_km": 354.8141474824861,
      "latitude_deg": -4.7442594275280804e-05,
      "longitude_deg": 136.76761507304803,
      "height_km": 356.21432044475176,
      "semi_major_axis_km": 6734.444173755807,
      "eccentricity": 0.0002217,
      "inclination_deg": 43.0052,
      "raan_deg": 191.4944,
      "arg_perigee_deg": 264.8699,
      "mean_anomaly_deg": 95.1915,
      "mean_motion_rev_day": 15.70905739
    }
  ]
}